NORAD_CAT_ID,OBJECT_NAME,OBJECT_TYPE,EPOCH,MEAN_MOTION,ECCENTRICITY,INCLINATION,RA_OF_ASC_NODE,ARG_OF_PERICENTER,MEAN_ANOMALY,BSTAR,MEAN_MOTION_DOT,MEAN_MOTION_DDOT,TLE_LINE0,TLE_LINE1,TLE_LINE2,SEMIMAJOR_AXIS,PERIOD,APOGEE,PERIGEE,DECAYED
53735.0,STARLINK-4618,PAYLOAD,2024-07-29 20:37:26,15.08841755,0.0001413,53.2187,22.808,83.3353,276.78,0.00018661,2.683e-05,0.0,0 STARLINK-4618,1 53735U 22107AM  24211.85933502  .00002683  00000-0  18661-3 0  9994,2 53735  53.2187  22.8080 0001413  83.3353 276.7800 15.08841755105072,6917.875,95.437,540.718,538.763,0.0
53735.0,STARLINK-4618,PAYLOAD,2024-07-30 04:34:21,15.08852338,0.0001365,53.2181,21.325,82.5687,277.546,0.00026879,3.994e-05,0.0,0 STARLINK-4618,1 53735U 22107AM  24212.19052911  .00003994  00000-0  26879-3 0  9994,2 53735  53.2181  21.3250 0001365  82.5687 277.5460 15.08852338105122,6917.843,95.437,540.652,538.763,0.0
53735.0,STARLINK-4618,PAYLOAD,2024-07-30 10:55:54,15.08850949,0.0002131,53.2179,20.1384,82.2778,277.8456,0.00024148,3.558e-05,0.0,0 STARLINK-4618,1 53735U 22107AM  24212.45549090  .00003558  00000-0  24148-3 0  9995,2 53735  53.2179  20.1384 0002131  82.2778 277.8456 15.08850949105791,6917.847,95.437,541.186,538.238,0.0
53735.0,STARLINK-4618,PAYLOAD,2024-07-30 17:17:27,15.08853886,0.0002447,53.2182,18.9468,82.7592,277.3679,0.00034494,5.208e-05,0.0,0 STARLINK-4618,1 53735U 22107AM  24212.72045303  .00005208  00000-0  34494-3 0  9992,2 53735  53.2182  18.9468 0002447  82.7592 277.3679 15.08853886105203,6917.838,95.437,541.396,538.01,0.0
53735.0,STARLINK-4618,PAYLOAD,2024-07-31 04:25:09,15.08842538,0.0002124,53.2164,16.8658,79.3141,280.8091,6.7622e-05,7.88e-06,0.0,0 STARLINK-4618,1 53735U 22107AM  24213.18413421  .00000788  00000-0  67622-4 0  9991,2 53735  53.2164  16.8658 0002124  79.3141 280.8091 15.08842538105271,6917.873,95.437,541.207,538.268,0.0
53735.0,STARLINK-4618,PAYLOAD,2024-07-31 20:19:00,15.08839902,0.0001475,53.2179,13.8845,105.4855,254.63,7.4938e-05,9.05e-06,0.0,0 STARLINK-4618,1 53735U 22107AM  24213.84653471  .00000905  00000-0  74938-4 0  9994,2 53735  53.2179  13.8845 0001475 105.4855 254.6300 15.08839902106008,6917.881,95.438,540.766,538.725,0.0
53735.0,STARLINK-4618,PAYLOAD,2024-08-01 10:37:28,15.08850792,0.0001356,53.2193,11.2129,97.7917,262.3229,0.00046998,7.202e-05,0.0,0 STARLINK-4618,1 53735U 22107AM  24214.44269279  .00007202  00000-0  46998-3 0  9991,2 53735  53.2193  11.2129 0001356  97.7917 262.3229 15.08850792105466,6917.847,95.437,540.65,538.774,0.0
53735.0,STARLINK-4618,PAYLOAD,2024-08-01 16:59:01,15.0885236,0.000147,53.2188,10.024,94.1941,265.9219,0.00038144,5.79e-05,0.0,0 STARLINK-4618,1 53735U 22107AM  24214.70765105  .00005790  00000-0  38144-3 0  9993,2 53735  53.2188  10.0240 0001470  94.1941 265.9219 15.08852360106132,6917.843,95.437,540.725,538.691,0.0
53735.0,STARLINK-4618,PAYLOAD,2024-08-02 13:39:02,15.08841323,0.0001263,53.2163,6.1608,78.2237,281.8896,0.00013183,1.811e-05,0.0,0 STARLINK-4618,1 53735U 22107AM  24215.56877356  .00001811  00000-0  13183-3 0  9996,2 53735  53.2163   6.1608 0001263  78.2237 281.8896 15.08841323105639,6917.876,95.437,540.615,538.868,0.0
53735.0,STARLINK-4618,PAYLOAD,2024-08-02 16:49:48,15.08834893,0.0001193,53.2168,5.5645,91.4271,268.6858,8.532e-05,1.07e-05,0.0,0 STARLINK-4618,1 53735U 22107AM  24215.70125694  .00001070  00000-0  85320-4 0  9993,2 53735  53.2168   5.5645 0001193  91.4271 268.6858 15.08834893106282,6917.896,95.438,540.586,538.936,0.0
53735.0,STARLINK-4618,PAYLOAD,2024-08-03 13:29:50,15.0881628,0.000108,53.2173,1.7,92.9747,267.1369,0.00060147,9.291e-05,0.0,0 STARLINK-4618,1 53735U 22107AM  24216.56238986  .00009291  00000-0  60147-3 0  9999,2 53735  53.2173   1.7000 0001080  92.9747 267.1369 15.08816280105785,6917.953,95.439,540.565,539.071,0.0
53735.0,STARLINK-4618,PAYLOAD,2024-08-03 15:05:12,15.08838841,0.0001242,53.2179,1.4008,93.9036,266.2098,2.5124e-05,1.12e-06,0.0,0 STARLINK-4618,1 53735U 22107AM  24216.62861773  .00000112  00000-0  25124-4 0  9992,2 53735  53.2179   1.4008 0001242  93.9036 266.2098 15.08838841106426,6917.884,95.438,540.608,538.89,0.0
53735.0,STARLINK-4618,PAYLOAD,2024-08-03 19:51:21,15.08850163,0.0001244,53.2184,0.5047,99.3068,260.8064,-5.3122e-05,-1.133e-05,0.0,0 STARLINK-4618,1 53735U 22107AM  24216.82733110 -.00001133  00000-0 -53122-4 0  9992,2 53735  53.2184   0.5047 0001244  99.3068 260.8064 15.08850163105829,6917.849,95.437,540.575,538.854,0.0
53735.0,STARLINK-4618,PAYLOAD,2024-08-04 02:12:53,15.08853631,0.0001239,53.2186,359.3204,93.6278,266.4856,0.00019221,2.774e-05,0.0,0 STARLINK-4618,1 53735U 22107AM  24217.09228253  .00002774  00000-0  19221-3 0  9990,2 53735  53.2186 359.3204 0001239  93.6278 266.4856 15.08853631105863,6917.839,95.437,540.561,538.847,0.0
53735.0,STARLINK-4618,PAYLOAD,2024-08-04 13:20:37,15.08825691,0.0001346,53.2185,357.2401,100.5756,259.5387,6.2995e-05,7.14e-06,0.0,0 STARLINK-4618,1 53735U 22107AM  24217.55598642  .00000714  00000-0  62995-4 0  9992,2 53735  53.2185 357.2401 0001346 100.5756 259.5387 15.08825691105931,6917.924,95.438,540.72,538.858,0.0
53735.0,STARLINK-4618,PAYLOAD,2024-08-04 14:56:00,15.08828288,0.0001453,53.2188,356.9437,103.9566,256.1587,9.0803e-05,1.157e-05,0.0,0 STARLINK-4618,1 53735U 22107AM  24217.62222503  .00001157  00000-0  90803-4 0  9991,2 53735  53.2188 356.9437 0001453 103.9566 256.1587 15.08828288106575,6917.916,95.438,540.786,538.776,0.0
53735.0,STARLINK-4618,PAYLOAD,2024-08-04 19:42:08,15.08848621,0.0001207,53.2175,356.045,79.8987,280.2141,0.00029733,4.448e-05,0.0,0 STARLINK-4618,1 53735U 22107AM  24217.82093346  .00004448  00000-0  29733-3 0  9993,2 53735  53.2175 356.0450 0001207  79.8987 280.2141 15.08848621105972,6917.854,95.437,540.554,538.884,0.0
53735.0,STARLINK-4618,PAYLOAD,2024-08-05 02:03:40,15.08861916,0.0001455,53.219,354.8596,92.3913,267.7246,0.00041508,6.328e-05,0.0,0 STARLINK-4618,1 53735U 22107AM  24218.08588412  .00006328  00000-0  41508-3 0  9998,2 53735  53.2190 354.8596 0001455  92.3913 267.7246 15.08861916106014,6917.813,95.436,540.685,538.672,0.0
53735.0,STARLINK-4618,PAYLOAD,2024-08-05 13:11:23,15.08826631,0.0001599,53.2187,352.7776,89.8163,270.3013,-0.00031387,-5.278e-05,0.0,0 STARLINK-4618,1 53735U 22107AM  24218.54958005 -.00005278  00000-0 -31387-3 0  9997,2 53735  53.2187 352.7776 0001599  89.8163 270.3013 15.08826631106088,6917.921,95.438,540.892,538.68,0.0
53735.0,STARLINK-4618,PAYLOAD,2024-08-05 16:22:09,15.08839275,0.000148,53.2186,352.1829,88.5101,271.606,-2.611e-05,-7.03e-06,0.0,0 STARLINK-4618,1 53735U 22107AM  24218.68205827 -.00000703  00000-0 -26110-4 0  9996,2 53735  53.2186 352.1829 0001480  88.5101 271.6060 15.08839275106104,6917.883,95.438,540.771,538.724,0.0
53735.0,STARLINK-4618,PAYLOAD,2024-08-06 13:02:11,15.08827032,0.0002534,53.2179,348.3151,87.4776,272.6506,-6.8434e-06,-3.97e-06,0.0,0 STARLINK-4618,1 53735U 22107AM  24219.54318955 -.00000397  00000-0 -68434-5 0  9994,2 53735  53.2179 348.3151 0002534  87.4776 272.6506 15.08827032106236,6917.92,95.438,541.538,538.032,0.0
53735.0,STARLINK-4618,PAYLOAD,2024-08-06 16:12:57,15.08837611,0.0001416,53.2178,347.719,84.4968,275.6185,-9.5809e-07,-3.03e-06,0.0,0 STARLINK-4618,1 53735U 22107AM  24219.67566442 -.00000303  00000-0 -95809-6 0  9998,2 53735  53.2178 347.7190 0001416  84.4968 275.6185 15.08837611106251,6917.888,95.438,540.732,538.773,0.0
53735.0,STARLINK-4618,PAYLOAD,2024-08-07 12:52:58,15.0884522,0.000172,53.2174,343.8555,90.4139,269.705,0.00043744,6.682e-05,0.0,0 STARLINK-4618,1 53735U 22107AM  24220.53678483  .00006682  00000-0  43744-3 0  9996,2 53735  53.2174 343.8555 0001720  90.4139 269.7050 15.08845220107019,6917.864,95.437,540.919,538.54,0.0
53735.0,STARLINK-4618,PAYLOAD,2024-08-07 16:03:44,15.0885297,0.0001521,53.2171,343.2609,92.515,267.6016,0.00045749,7.003e-05,0.0,0 STARLINK-4618,1 53735U 22107AM  24220.66926230  .00007003  00000-0  45749-3 0  9991,2 53735  53.2171 343.2609 0001521  92.5150 267.6016 15.08852970106406,6917.841,95.437,540.758,538.654,0.0
53735.0,STARLINK-4618,PAYLOAD,2024-08-08 14:19:07,15.08848565,0.000133,53.2167,339.0955,116.8413,243.2715,0.00020684,3.006e-05,0.0,0 STARLINK-4618,1 53735U 22107AM  24221.59662023  .00003006  00000-0  20684-3 0  9991,2 53735  53.2167 339.0955 0001330 116.8413 243.2715 15.08848565107174,6917.854,95.437,540.639,538.799,0.0
53735.0,STARLINK-4618,PAYLOAD,2024-08-09 12:34:31,15.08847707,0.0001438,53.2174,334.9315,110.0277,250.087,1.8077e-05,0.0,0.0,0 STARLINK-4618,1 53735U 22107AM  24222.52397839 -.00000000  00000-0  18077-4 0  9991,2 53735  53.2174 334.9315 0001438 110.0277 250.0870 15.08847707106689,6917.857,95.437,540.717,538.727,0.0
53735.0,STARLINK-4618,PAYLOAD,2024-08-09 14:09:55,15.08845178,0.0001447,53.2182,334.6346,95.0126,265.1031,4.7739e-05,4.72e-06,0.0,0 STARLINK-4618,1 53735U 22107AM  24222.59022047  .00000472  00000-0  47739-4 0  9993,2 53735  53.2182 334.6346 0001447  95.0126 265.1031 15.08845178107322,6917.865,95.437,540.731,538.729,0.0
53735.0,STARLINK-4618,PAYLOAD,2024-08-10 12:25:19,15.08837055,0.0001014,53.2169,330.4713,82.6936,277.4172,3.9967e-05,3.48e-06,0.0,0 STARLINK-4618,1 53735U 22107AM  24223.51758479  .00000348  00000-0  39967-4 0  9997,2 53735  53.2169 330.4713 0001014  82.6936 277.4172 15.08837055106832,6917.889,95.438,540.456,539.053,0.0
53735.0,STARLINK-4618,PAYLOAD,2024-08-10 14:00:42,15.08831642,8.71e-05,53.2179,330.1705,98.2757,261.8334,6.1502e-06,-1.9e-06,0.0,0 STARLINK-4618,1 53735U 22107AM  24223.58382800 -.00000190  00000-0  61502-5 0  9992,2 53735  53.2179 330.1705 0000871  98.2757 261.8334 15.08831642107479,6917.906,95.438,540.373,539.168,0.0
53735.0,STARLINK-4618,PAYLOAD,2024-08-11 13:51:29,15.08838406,0.0001273,53.2187,325.7147,82.8424,277.2713,8.5009e-05,1.065e-05,0.0,0 STARLINK-4618,1 53735U 22107AM  24224.57742756  .00001065  00000-0  85009-4 0  9990,2 53735  53.2187 325.7147 0001273  82.8424 277.2713 15.08838406106998,6917.885,95.438,540.631,538.87,0.0
